LEMUR-1                 
1 40044U 14033AL  26196.99254962  .00000775  00000+0  94706-4 0  9991
2 40044  97.7910 346.1644 0047662 345.2728  14.7096 14.85338235649740
LEMUR-2-GREENBERG       
1 42837U 17042N   26197.22248715  .00008626  00000+0  27999-3 0  9994
2 42837  97.3829  17.7330 0007235 255.1675 104.8765 15.32171891492838
LEMUR-2-ANDIS           
1 42838U 17042P   26196.98733141  .00013224  00000+0  37972-3 0  9991
2 42838  97.3680  17.7865 0007229 254.8432 105.2013 15.35945333492875
LEMUR-2-MONSON          
1 42839U 17042Q   26197.29488539  .00007128  00000+0  25749-3 0  9990
2 42839  97.4089  17.7318 0005377 240.1872 119.8833 15.28768947492610
LEMUR-2-FURIAUS         
1 42840U 17042R   26196.97469007  .00010380  00000+0  34726-3 0  9994
2 42840  97.3775  15.3762 0006032 326.8661  33.2202 15.31147084492613
LEMUR-2-PETERG          
1 42841U 17042S   26197.05385494  .00011626  00000+0  34405-3 0  9990
2 42841  97.3990  22.1561 0003361 216.1647 143.9370 15.35048749492867
LEMUR-2-DEMBITZ         
1 42842U 17042T   26196.47161280  .00008871  00000+0  29756-3 0  9992
2 42842  97.3825  17.9201 0005052 273.6984  86.3679 15.31114268492676
LEMUR-2-ZACHARY         
1 42845U 17042W   26197.27667502  .00030256  00000+0  48944-3 0  9994
2 42845  97.3568  29.5840 0002583 240.1471 119.9525 15.52782947493714
LEMUR-2-AMANDA-SVANTE   
1 48269U 21034B   26197.16739907  .00017874  00000+0  51162-3 0  9990
2 48269  97.5752 276.2525 0004619 140.8995 219.2583 15.35996622285509
LEMUR-2-SPECIAL-K       
1 48273U 21034F   26197.22303533  .00169731  00000+0  11202-2 0  9994
2 48273  97.5633 286.4062 0006278 212.8733 147.2141 15.75087247286244
LEMUR-2-EMBRIONOVIS     
1 56970U 23084AQ  26197.22080460  .00007568  00000+0  20299-3 0  9991
2 56970  97.6325 342.5548 0008437 202.2371 157.8508 15.38245588172149
LEMUR-2-DEVERILL-M-T    
1 57391U 23100F   26197.07491124  .00015273  00000+0  37141-3 0  9990
2 57391  99.4451 244.2087 0004689 293.4879  66.5868 15.41119232165690
LEMUR-2-BASS            
1 58259U 23174D   26197.18789286  .00009663  00000+0  21365-3 0  9993
2 58259  97.3848 282.3238 0007619  75.2260 284.9832 15.44014456149838
LEMUR-2-JK0903EM1407    
1 58336U 23174CJ  26197.21425151  .00015716  00000+0  25252-3 0  9996
2 58336  97.3926 288.5330 0003549  29.4194 330.7259 15.53102524150230
LEMUR-2-MJR092620       
1 58340U 23174CN  26197.29634208  .00010354  00000+0  21485-3 0  9991
2 58340  97.3977 287.8824 0005207  26.6352 333.5164 15.45887001150146
LEMUR-2-NIMBUS2000      
1 58899U 24022A   26197.11259930  .00012191  00000+0  29589-3 0  9993
2 58899  97.4075  47.4963 0008670  25.7184 334.4492 15.41139769136728
LEMUR-2-VALHALLA        
1 58900U 24022B   26197.11783350  .00008848  00000+0  21993-3 0  9999
2 58900  97.4075  47.4706 0009123  21.0050 339.1569 15.40504761136725
LEMUR-2-CAEL            
1 58903U 24022E   26197.16751785  .00009499  00000+0  22563-3 0  9991
2 58903  97.4056  48.5091 0007022   6.0617 354.0714 15.41875695136809
LEMUR-2-JOHNNYTRUONG    
1 59146U 24043BA  26196.98636197  .00026505  00000+0  29764-3 0  9999
2 59146  97.5396 350.5235 0004044  92.1391 268.0330 15.62606919132537
LEMUR-2-TOMATOKECHUP    
1 60471U 24149D   26197.22156474  .00005790  00000+0  16437-3 0  9998
2 60471  97.3797 279.3527 0003334 120.7156 239.4418 15.36594859106623
LEMUR-2-STELLA          
1 60533U 24149BT  26197.19850837  .00005213  00000+0  30425-3 0  9990
2 60533  97.6736 279.7913 0001252 119.4240 240.7115 15.12381661104881
LEMUR-2-MARHISYAM       
1 60536U 24149BW  26197.18981359  .00005441  00000+0  32263-3 0  9991
2 60536  97.6879 280.2601 0002338  68.0137 292.1341 15.11787785104869
LEMUR-2-AHMED-ASRAR     
1 60576U 24149DN  26197.19531720  .00006078  00000+0  34500-3 0  9992
2 60576  97.7004 282.4729 0001293 203.7256 156.3916 15.13317903104950
LEMUR-2-LLOYD           
1 60577U 24149DP  26197.20906754  .00004440  00000+0  27902-3 0  9997
2 60577  97.6745 278.3629 0004733  70.1548 290.0190 15.09760819104770
LEMUR-2-SQUIRRELCOMM    
1 60578U 24149DQ  26197.19922737  .00002060  00000+0  14009-3 0  9995
2 60578  97.6708 278.0240 0004045 322.9708  37.1239 15.07450971104775
LEMUR-2-SIERRINI        
1 60579U 24149DR  26197.21887706  .00005239  00000+0  31296-3 0  9993
2 60579  97.6842 279.9499 0006474  87.8684 272.3287 15.11524285104848
LEMUR-2-WILSON          
1 62694U 25009CP  26197.20562544  .00000706  00000+0  69278-4 0  9994
2 62694  97.7020 275.1617 0001950 319.2940  40.8135 14.95277923 81690
LEMUR-2-STAR-FOX        
1 62696U 25009CR  26197.19216881  .00003311  00000+0  25160-3 0  9990
2 62696  97.6906 278.5926 0002076  38.2858 321.8515 15.02847456 81912
LEMUR-2-ARIANNA         
1 62699U 25009CU  26197.19063443  .00003528  00000+0  26779-3 0  9994
2 62699  97.6848 278.3426 0002441  45.4867 314.6558 15.02849743 81917
LEMUR-2-ALISIA          
1 62706U 25009DB  26197.16278189  .00003920  00000+0  29439-3 0  9997
2 62706  97.6971 279.1419 0004420 126.4435 233.7199 15.03183137104517
